[{"OBJECT_NAME":"JILIN-1 07","OBJECT_ID":"2018-008E","EPOCH":"2026-03-09T22:24:26.445888","MEAN_MOTION":15.32987507,"ECCENTRICITY":0.00101791,"INCLINATION":97.1876,"RA_OF_ASC_NODE":91.5817,"ARG_OF_PERICENTER":62.7832,"MEAN_ANOMALY":297.4447,"EPHEMERIS_TYPE":0,"CLASSIFICATION_TYPE":"U","NORAD_CAT_ID":43159,"ELEMENT_SET_NO":999,"REV_AT_EPOCH":44978,"BSTAR":0.00036439521,"MEAN_MOTION_DOT":0.00011559,"MEAN_MOTION_DDOT":0},{"OBJECT_NAME":"STARLINK-32862","OBJECT_ID":"2025-022L","EPOCH":"2026-03-09T12:54:16.799616","MEAN_MOTION":15.30119489,"ECCENTRICITY":6.118e-5,"INCLINATION":53.1575,"RA_OF_ASC_NODE":130.5473,"ARG_OF_PERICENTER":156.5334,"MEAN_ANOMALY":203.5695,"EPHEMERIS_TYPE":0,"CLASSIFICATION_TYPE":"U","NORAD_CAT_ID":62864,"ELEMENT_SET_NO":999,"REV_AT_EPOCH":6187,"BSTAR":0.00038388629,"MEAN_MOTION_DOT":0.00011,"MEAN_MOTION_DDOT":0}]
